NORAD_CAT_ID,OBJECT_NAME,OBJECT_TYPE,EPOCH,MEAN_MOTION,ECCENTRICITY,INCLINATION,RA_OF_ASC_NODE,ARG_OF_PERICENTER,MEAN_ANOMALY,BSTAR,MEAN_MOTION_DOT,MEAN_MOTION_DDOT,TLE_LINE0,TLE_LINE1,TLE_LINE2,SEMIMAJOR_AXIS,PERIOD,APOGEE,PERIGEE,DECAYED
52377.0,STARLINK-3805,PAYLOAD,2024-05-15 10:32:16,15.08856149,5.47e-05,53.2182,286.7927,329.053,31.043,0.00026864,3.992e-05,0.0,0 STARLINK-3805,1 52377U 22045AY  24136.43907469  .00003992  00000-0  26864-3 0  9997,2 52377  53.2182 286.7927 0000547 329.0530  31.0430 15.08856149115786,6917.831,95.437,540.074,539.318,0.0
52377.0,STARLINK-3805,PAYLOAD,2024-05-15 13:43:02,15.08857659,9.52e-05,53.216,286.1948,74.5607,285.549,0.00038845,5.903e-05,0.0,0 STARLINK-3805,1 52377U 22045AY  24136.57155285  .00005903  00000-0  38845-3 0  9999,2 52377  53.2160 286.1948 0000952  74.5607 285.5490 15.08857659115808,6917.826,95.436,540.35,539.033,0.0
52377.0,STARLINK-3805,PAYLOAD,2024-05-15 15:18:25,15.08864311,0.000121,53.2155,285.8973,80.1157,279.9972,0.00033774,5.095e-05,0.0,0 STARLINK-3805,1 52377U 22045AY  24136.63778970  .00005095  00000-0  33774-3 0  9996,2 52377  53.2155 285.8973 0001210  80.1157 279.9972 15.08864311115813,6917.806,95.436,540.508,538.834,0.0
52377.0,STARLINK-3805,PAYLOAD,2024-05-16 10:23:02,15.08866807,0.0003208,53.2176,282.3297,73.7303,286.4042,0.00060724,9.397e-05,0.0,0 STARLINK-3805,1 52377U 22045AY  24137.43267025  .00009397  00000-0  60724-3 0  9993,2 52377  53.2176 282.3297 0003208  73.7303 286.4042 15.08866807115933,6917.798,95.436,541.883,537.444,0.0
52377.0,STARLINK-3805,PAYLOAD,2024-05-16 18:19:57,15.08862048,0.0001304,53.2153,280.842,63.6376,296.475,0.00073783,0.00011481,0.0,0 STARLINK-3805,1 52377U 22045AY  24137.76386526  .00011481  00000-0  73783-3 0  9993,2 52377  53.2153 280.8420 0001304  63.6376 296.4750 15.08862048115987,6917.813,95.436,540.58,538.776,0.0
52377.0,STARLINK-3805,PAYLOAD,2024-05-17 02:16:54,15.08824974,0.0002032,53.2149,279.355,74.0294,286.0921,-0.00020931,-3.617e-05,0.0,0 STARLINK-3805,1 52377U 22045AY  24138.09507595 -.00003617  00000-0 -20931-3 0  9992,2 52377  53.2149 279.3550 0002032  74.0294 286.0921 15.08824974116031,6917.926,95.439,541.197,538.386,0.0
52377.0,STARLINK-3805,PAYLOAD,2024-05-17 18:10:47,15.08806441,0.0002409,53.2159,276.3836,81.1728,278.9537,-4.7973e-06,-3.65e-06,0.0,0 STARLINK-3805,1 52377U 22045AY  24138.75749383 -.00000365  00000-0 -47973-5 0  9992,2 52377  53.2159 276.3836 0002409  81.1728 278.9537 15.08806441116138,6917.983,95.44,541.515,538.181,0.0
52377.0,STARLINK-3805,PAYLOAD,2024-05-18 13:15:23,15.08865623,0.0001741,53.2142,272.8142,97.9936,262.1253,0.0012335,0.00019411,0.0,0 STARLINK-3805,1 52377U 22045AY  24139.55235855  .00019411  00000-0  12335-2 0  9996,2 52377  53.2142 272.8142 0001741  97.9936 262.1253 15.08865623116255,6917.802,95.436,540.871,538.463,0.0
52377.0,STARLINK-3805,PAYLOAD,2024-05-18 14:50:46,15.08878074,0.0001252,53.2148,272.5153,104.221,255.8921,0.0016184,0.0002559,0.0,0 STARLINK-3805,1 52377U 22045AY  24139.61859560  .00025590  00000-0  16184-2 0  9999,2 52377  53.2148 272.5153 0001252 104.2210 255.8921 15.08878074116260,6917.764,95.435,540.495,538.763,0.0
52377.0,STARLINK-3805,PAYLOAD,2024-05-18 16:26:09,15.08887754,0.0001327,53.215,272.2179,106.535,253.5788,0.0022595,0.00035903,0.0,0 STARLINK-3805,1 52377U 22045AY  24139.68483502  .00035903  00000-0  22595-2 0  9997,2 52377  53.2150 272.2179 0001327 106.5350 253.5788 15.08887754116273,6917.734,95.435,540.517,538.681,0.0
52377.0,STARLINK-3805,PAYLOAD,2024-05-19 01:58:28,15.08867997,0.0002092,53.2147,270.4357,70.2448,289.8769,3.2176e-05,2.24e-06,0.0,0 STARLINK-3805,1 52377U 22045AY  24140.08227351  .00000224  00000-0  32176-4 0  9997,2 52377  53.2147 270.4357 0002092  70.2448 289.8769 15.08867997116337,6917.795,95.436,541.107,538.213,0.0
52377.0,STARLINK-3805,PAYLOAD,2024-05-19 13:06:10,15.08846315,9.62e-05,53.2147,268.3527,54.2317,305.8764,-0.00023002,-3.947e-05,0.0,0 STARLINK-3805,1 52377U 22045AY  24140.54595120 -.00003947  00000-0 -23002-3 0  9994,2 52377  53.2147 268.3527 0000962  54.2317 305.8764 15.08846315116406,6917.861,95.437,540.392,539.061,0.0
52377.0,STARLINK-3805,PAYLOAD,2024-05-19 17:52:19,15.08864121,0.0001066,53.2154,267.4612,73.0479,287.063,0.00029413,4.399e-05,0.0,0 STARLINK-3805,1 52377U 22045AY  24140.74466463  .00004399  00000-0  29413-3 0  9995,2 52377  53.2154 267.4612 0001066  73.0479 287.0630 15.08864121116434,6917.807,95.436,540.409,538.934,0.0
52377.0,STARLINK-3805,PAYLOAD,2024-05-20 12:56:57,15.0883009,0.0001771,53.2159,263.8885,109.6931,250.4253,0.00011692,1.573e-05,0.0,0 STARLINK-3805,1 52377U 22045AY  24141.53955864  .00001573  00000-0  11692-3 0  9992,2 52377  53.2159 263.8885 0001771 109.6931 250.4253 15.08830090116559,6917.911,95.438,541.001,538.551,0.0
52377.0,STARLINK-3805,PAYLOAD,2024-05-20 14:32:21,15.08829951,0.000137,53.2159,263.5939,80.6171,279.4976,0.00015476,2.175e-05,0.0,0 STARLINK-3805,1 52377U 22045AY  24141.60580090  .00002175  00000-0  15476-3 0  9998,2 52377  53.2159 263.5939 0001370  80.6171 279.4976 15.08829951116563,6917.911,95.438,540.724,538.828,0.0
52377.0,STARLINK-3805,PAYLOAD,2024-05-21 12:47:45,15.08833424,0.0001602,53.218,259.4264,97.7151,262.4023,0.00022735,3.331e-05,0.0,0 STARLINK-3805,1 52377U 22045AY  24142.53316614  .00003331  00000-0  22735-3 0  9991,2 52377  53.2180 259.4264 0001602  97.7151 262.4023 15.08833424116708,6917.9,95.438,540.874,538.657,0.0
52377.0,STARLINK-3805,PAYLOAD,2024-05-22 11:03:10,15.08832595,0.0001502,53.2167,255.2629,107.4864,252.6293,0.00029103,4.346e-05,0.0,0 STARLINK-3805,1 52377U 22045AY  24143.46053302  .00004346  00000-0  29103-3 0  9999,2 52377  53.2167 255.2629 0001502 107.4864 252.6293 15.08832595116844,6917.903,95.438,540.807,538.729,0.0
52377.0,STARLINK-3805,PAYLOAD,2024-05-23 12:29:20,15.08839196,0.0001603,53.2189,250.5243,110.2586,249.8579,0.00018228,2.614e-05,0.0,0 STARLINK-3805,1 52377U 22045AY  24144.52037561  .00002614  00000-0  18228-3 0  9998,2 52377  53.2189 250.5243 0001603 110.2586 249.8579 15.08839196117001,6917.883,95.438,540.857,538.639,0.0
52377.0,STARLINK-3805,PAYLOAD,2024-05-23 14:04:43,15.08842329,0.0001691,53.2179,250.2173,113.7803,246.3366,0.0002351,3.456e-05,0.0,0 STARLINK-3805,1 52377U 22045AY  24144.58661315  .00003456  00000-0  23510-3 0  9999,2 52377  53.2179 250.2173 0001691 113.7803 246.3366 15.08842329117015,6917.873,95.437,540.908,538.568,0.0
52377.0,STARLINK-3805,PAYLOAD,2024-05-24 13:55:30,15.08841242,0.0001277,53.2159,245.7529,88.8622,271.2516,0.00015278,2.145e-05,0.0,0 STARLINK-3805,1 52377U 22045AY  24145.58021499  .00002145  00000-0  15278-3 0  9999,2 52377  53.2159 245.7529 0001277  88.8622 271.2516 15.08841242117161,6917.877,95.437,540.625,538.858,0.0
52377.0,STARLINK-3805,PAYLOAD,2024-05-24 17:06:16,15.08841907,0.0001276,53.2155,245.1583,91.2493,268.8645,0.00014878,2.081e-05,0.0,0 STARLINK-3805,1 52377U 22045AY  24145.71269451  .00002081  00000-0  14878-3 0  9990,2 52377  53.2155 245.1583 0001276  91.2493 268.8645 15.08841907117189,6917.875,95.437,540.622,538.857,0.0
52377.0,STARLINK-3805,PAYLOAD,2024-05-25 13:46:17,15.08851397,0.0001177,53.2151,241.2988,101.867,258.2454,0.00015542,2.187e-05,0.0,0 STARLINK-3805,1 52377U 22045AY  24146.57380978  .00002187  00000-0  15542-3 0  9999,2 52377  53.2151 241.2988 0001177 101.8670 258.2454 15.08851397117316,6917.846,95.437,540.525,538.896,0.0
52377.0,STARLINK-3805,PAYLOAD,2024-05-25 23:18:36,15.08839534,0.0001153,53.2155,239.5069,90.1842,269.9282,1.487e-06,-2.64e-06,0.0,0 STARLINK-3805,1 52377U 22045AY  24146.97125443 -.00000264  00000-0  14870-5 0  9997,2 52377  53.2155 239.5069 0001153  90.1842 269.9282 15.08839534117378,6917.882,95.438,540.544,538.949,0.0
52377.0,STARLINK-3805,PAYLOAD,2024-05-26 13:37:04,15.08849315,0.0001183,53.2153,236.8358,86.0935,274.0192,0.000263,3.901e-05,0.0,0 STARLINK-3805,1 52377U 22045AY  24147.56741125  .00003901  00000-0  26300-3 0  9993,2 52377  53.2153 236.8358 0001183  86.0935 274.0192 15.08849315117462,6917.852,95.437,540.535,538.899,0.0
52377.0,STARLINK-3805,PAYLOAD,2024-05-26 15:12:27,15.08841364,7.28e-05,53.2152,236.533,128.8148,231.291,0.00032351,4.865e-05,0.0,0 STARLINK-3805,1 52377U 22045AY  24147.63365087  .00004865  00000-0  32351-3 0  9993,2 52377  53.2152 236.5330 0000728 128.8148 231.2910 15.08841364117473,6917.876,95.437,540.245,539.238,0.0
52377.0,STARLINK-3805,PAYLOAD,2024-05-27 05:30:56,15.08835413,0.0001186,53.2163,233.8604,88.6271,271.4857,-3.6287e-06,-3.46e-06,0.0,0 STARLINK-3805,1 52377U 22045AY  24148.22981786 -.00000346  00000-0 -36287-5 0  9995,2 52377  53.2163 233.8604 0001186  88.6271 271.4857 15.08835413117562,6917.894,95.438,540.58,538.939,0.0
52377.0,STARLINK-3805,PAYLOAD,2024-05-27 11:52:28,15.08845182,0.0001739,53.217,232.6718,81.1195,278.9994,5.2621e-05,5.5e-06,0.0,0 STARLINK-3805,1 52377U 22045AY  24148.49477404  .00000550  00000-0  52621-4 0  9995,2 52377  53.2170 232.6718 0001739  81.1195 278.9994 15.08845182117603,6917.865,95.437,540.933,538.527,0.0
52377.0,STARLINK-3805,PAYLOAD,2024-05-28 11:43:15,15.08851682,0.0001364,53.2176,228.2114,95.9822,264.1326,3.0993e-05,2.05e-06,0.0,0 STARLINK-3805,1 52377U 22045AY  24149.48836815  .00000205  00000-0  30993-4 0  9995,2 52377  53.2176 228.2114 0001364  95.9822 264.1326 15.08851682117758,6917.845,95.437,540.653,538.766,0.0
52377.0,STARLINK-3805,PAYLOAD,2024-05-29 05:12:30,15.08839487,0.0001625,53.2161,224.9417,67.831,292.2854,4.0078e-05,3.5e-06,0.0,0 STARLINK-3805,1 52377U 22045AY  24150.21701556  .00000350  00000-0  40078-4 0  9997,2 52377  53.2161 224.9417 0001625  67.8310 292.2854 15.08839487117860,6917.882,95.438,540.871,538.623,0.0
52377.0,STARLINK-3805,PAYLOAD,2024-05-29 09:58:39,15.08836856,0.0001422,53.2161,224.0483,84.7331,275.3823,-7.8885e-07,-3e-06,0.0,0 STARLINK-3805,1 52377U 22045AY  24150.41573656 -.00000300  00000-0 -78885-6 0  9993,2 52377  53.2161 224.0483 0001422  84.7331 275.3823 15.08836856117898,6917.89,95.438,540.739,538.771,0.0
